{
"type": "FeatureCollection",
"name": "relevamiento_em_P07F6_ALE",
"crs": { "type": "name", "properties": { "name": "urn:ogc:def:crs:EPSG::5348" } },
"features": [
{"type":"Feature","properties":{"fid":1,"calle":"Urquiza","entre_calle_1":"Av 9 de Julio","entre_calle_2":"Pablo Stampa","lado":"impar","tipo":"motos","motivo":null,"arranque_m":null,"largo_m":null,"capacidad":null,"horario":null,"tarifa":null,"senializacion":null,"observaciones":null,"origen":null},"geometry":{"type":"MultiLineString","coordinates":[[[6405528.723963662981987,6597485.988124132156372],[6405537.453194571658969,6597477.739381027407944]]]}},
{"type":"Feature","properties":{"fid":2,"calle":"Urquiza","entre_calle_1":"Av 9 de Julio","entre_calle_2":"Pablo Stampa","lado":"par","tipo":"autos","motivo":null,"arranque_m":null,"largo_m":null,"capacidad":null,"horario":null,"tarifa":null,"senializacion":null,"observaciones":null,"origen":null},"geometry":{"type":"MultiLineString","coordinates":[[[6405537.453194571658969,6597477.739381027407944],[6405564.553129708394408,6597450.867594767361879]]]}},
{"type":"Feature","properties":{"fid":10,"calle":"Urquiza","entre_calle_1":"Av 9 de Julio","entre_calle_2":"Pablo Stampa","lado":"par","tipo":"motos","motivo":"subida_privada","arranque_m":null,"largo_m":null,"capacidad":null,"horario":null,"tarifa":null,"senializacion":null,"observaciones":null,"origen":null},"geometry":{"type":"MultiLineString","coordinates":[[[6405576.405370274558663,6597449.634603226557374],[6405584.841507277451456,6597441.305779790505767]]]}},
{"type":"Feature","properties":{"fid":5,"calle":"Urquiza","entre_calle_1":"Av 9 de Julio","entre_calle_2":"Pablo Stampa","lado":"par","tipo":"autos","motivo":null,"arranque_m":null,"largo_m":null,"capacidad":null,"horario":null,"tarifa":null,"senializacion":null,"observaciones":null,"origen":null},"geometry":{"type":"MultiLineString","coordinates":[[[6405559.957027860917151,6597465.503772768191993],[6405533.733554692938924,6597492.328402460552752]]]}},
{"type":"Feature","properties":{"fid":11,"calle":"Urquiza","entre_calle_1":"Pablo Stampa","entre_calle_2":"Rivadavia","lado":"impar","tipo":"motos","motivo":null,"arranque_m":null,"largo_m":null,"capacidad":null,"horario":null,"tarifa":null,"senializacion":null,"observaciones":null,"origen":null},"geometry":{"type":"MultiLineString","coordinates":[[[6405598.673763518221676,6597416.09857807867229],[6405607.188244602642953,6597407.303399816155434]]]}},
{"type":"Feature","properties":{"fid":13,"calle":"Urquiza","entre_calle_1":"Pablo Stampa","entre_calle_2":"Rivadavia","lado":"impar","tipo":"motos","motivo":null,"arranque_m":null,"largo_m":null,"capacidad":null,"horario":null,"tarifa":null,"senializacion":null,"observaciones":null,"origen":null},"geometry":{"type":"MultiLineString","coordinates":[[[6405645.980972948484123,6597367.340393370948732],[6405637.666932371445,6597375.72451398242265]]]}},
{"type":"Feature","properties":{"fid":12,"calle":"Urquiza","entre_calle_1":"Pablo Stampa","entre_calle_2":"Rivadavia","lado":"impar","tipo":"autos","motivo":null,"arranque_m":null,"largo_m":null,"capacidad":null,"horario":null,"tarifa":null,"senializacion":null,"observaciones":null,"origen":null},"geometry":{"type":"MultiLineString","coordinates":[[[6405607.188244602642953,6597407.303399816155434],[6405637.666932371445,6597375.72451398242265]]]}},
{"type":"Feature","properties":{"fid":14,"calle":"Urquiza","entre_calle_1":"Pablo Stampa","entre_calle_2":"Rivadavia","lado":"par","tipo":"autos","motivo":null,"arranque_m":null,"largo_m":null,"capacidad":null,"horario":null,"tarifa":null,"senializacion":null,"observaciones":null,"origen":null},"geometry":{"type":"MultiLineString","coordinates":[[[6405623.164243392646313,6597401.387199828401208],[6405604.239285808056593,6597420.175822565332055]]]}},
{"type":"Feature","properties":{"fid":22,"calle":"Urquiza","entre_calle_1":"Rivadavia","entre_calle_2":"3 de Febrero","lado":"par","tipo":"motos","motivo":null,"arranque_m":null,"largo_m":null,"capacidad":null,"horario":null,"tarifa":null,"senializacion":null,"observaciones":null,"origen":null},"geometry":{"type":"MultiLineString","coordinates":[[[6405669.795443197712302,6597356.503471521660686],[6405678.561876962892711,6597348.197275528684258]]]}},
{"type":"Feature","properties":{"fid":26,"calle":"Urquiza","entre_calle_1":"Rivadavia","entre_calle_2":"3 de Febrero","lado":"par","tipo":"motos","motivo":null,"arranque_m":null,"largo_m":null,"capacidad":null,"horario":null,"tarifa":null,"senializacion":null,"observaciones":null,"origen":null},"geometry":{"type":"MultiLineString","coordinates":[[[6405725.854435741901398,6597302.012843032367527],[6405717.291929584927857,6597310.626316487789154]]]}},
{"type":"Feature","properties":{"fid":23,"calle":"Urquiza","entre_calle_1":"Rivadavia","entre_calle_2":"3 de Febrero","lado":"par","tipo":"autos","motivo":null,"arranque_m":null,"largo_m":null,"capacidad":null,"horario":null,"tarifa":null,"senializacion":null,"observaciones":null,"origen":null},"geometry":{"type":"MultiLineString","coordinates":[[[6405678.561876962892711,6597348.197275528684258],[6405703.851364383473992,6597323.776799729093909]]]}},
{"type":"Feature","properties":{"fid":17,"calle":"Urquiza","entre_calle_1":"Rivadavia","entre_calle_2":"3 de Febrero","lado":"impar","tipo":"autos","motivo":null,"arranque_m":null,"largo_m":null,"capacidad":null,"horario":null,"tarifa":null,"senializacion":null,"observaciones":null,"origen":null},"geometry":{"type":"MultiLineString","coordinates":[[[6405665.696235819719732,6597349.013141726143658],[6405683.36943603400141,6597331.744496646337211]]]}},
{"type":"Feature","properties":{"fid":27,"calle":"Urquiza","entre_calle_1":"3 de Febrero","entre_calle_2":"Entre Ríos","lado":"impar","tipo":"motos","motivo":null,"arranque_m":null,"largo_m":null,"capacidad":null,"horario":null,"tarifa":null,"senializacion":null,"observaciones":null,"origen":null},"geometry":{"type":"MultiLineString","coordinates":[[[6405740.877677001059055,6597275.603935058228672],[6405749.424091774970293,6597267.191292924806476]]]}},
{"type":"Feature","properties":{"fid":29,"calle":"Urquiza","entre_calle_1":"3 de Febrero","entre_calle_2":"Entre Ríos","lado":"impar","tipo":"motos","motivo":null,"arranque_m":null,"largo_m":null,"capacidad":null,"horario":null,"tarifa":null,"senializacion":null,"observaciones":null,"origen":null},"geometry":{"type":"MultiLineString","coordinates":[[[6405797.162099428474903,6597219.411414599046111],[6405788.635322568006814,6597227.777902724221349]]]}},
{"type":"Feature","properties":{"fid":28,"calle":"Urquiza","entre_calle_1":"3 de Febrero","entre_calle_2":"Entre Ríos","lado":"impar","tipo":"autos","motivo":null,"arranque_m":null,"largo_m":null,"capacidad":null,"horario":null,"tarifa":null,"senializacion":null,"observaciones":null,"origen":null},"geometry":{"type":"MultiLineString","coordinates":[[[6405749.424091769382358,6597267.191292894072831],[6405788.635322568006814,6597227.777902725152671]]]}},
{"type":"Feature","properties":{"fid":30,"calle":"Urquiza","entre_calle_1":"3 de Febrero","entre_calle_2":"Entre Ríos","lado":"par","tipo":"autos","motivo":null,"arranque_m":null,"largo_m":null,"capacidad":null,"horario":null,"tarifa":null,"senializacion":null,"observaciones":null,"origen":null},"geometry":{"type":"MultiLineString","coordinates":[[[6405747.047869383357465,6597281.78313980717212],[6405778.704648088663816,6597250.380506229586899]]]}},
{"type":"Feature","properties":{"fid":3,"calle":"Urquiza","entre_calle_1":"Av 9 de Julio","entre_calle_2":"Pablo Stampa","lado":"impar","tipo":"prohibido","motivo":"subida_privada","arranque_m":null,"largo_m":null,"capacidad":null,"horario":null,"tarifa":null,"senializacion":null,"observaciones":null,"origen":null},"geometry":{"type":"MultiLineString","coordinates":[[[6405564.553129705600441,6597450.867594735696912],[6405566.874205008149147,6597448.65461889654398]]]}},
{"type":"Feature","properties":{"fid":4,"calle":"Urquiza","entre_calle_1":"Av 9 de Julio","entre_calle_2":"Pablo Stampa","lado":"impar","tipo":"autos","motivo":null,"arranque_m":null,"largo_m":null,"capacidad":null,"horario":null,"tarifa":null,"senializacion":null,"observaciones":null,"origen":null},"geometry":{"type":"MultiLineString","coordinates":[[[6405566.874205005355179,6597448.654618861153722],[6405577.42785944417119,6597438.17548640538007]]]}},
{"type":"Feature","properties":{"fid":9,"calle":"Urquiza","entre_calle_1":"Av 9 de Julio","entre_calle_2":"Pablo Stampa","lado":"par","tipo":"autos","motivo":null,"arranque_m":null,"largo_m":null,"capacidad":null,"horario":null,"tarifa":null,"senializacion":null,"observaciones":null,"origen":null},"geometry":{"type":"MultiLineString","coordinates":[[[6405576.405370268970728,6597449.634603191167116],[6405572.567446446046233,6597453.182063866406679]]]}},
{"type":"Feature","properties":{"fid":8,"calle":"Urquiza","entre_calle_1":"Av 9 de Julio","entre_calle_2":"Pablo Stampa","lado":"par","tipo":"prohibido","motivo":"subida_privada","arranque_m":null,"largo_m":null,"capacidad":null,"horario":null,"tarifa":null,"senializacion":null,"observaciones":null,"origen":null},"geometry":{"type":"MultiLineString","coordinates":[[[6405572.567446442320943,6597453.182063831947744],[6405570.376833571121097,6597455.469731506891549]]]}},
{"type":"Feature","properties":{"fid":7,"calle":"Urquiza","entre_calle_1":"Av 9 de Julio","entre_calle_2":"Pablo Stampa","lado":"par","tipo":"autos","motivo":null,"arranque_m":null,"largo_m":null,"capacidad":null,"horario":null,"tarifa":null,"senializacion":null,"observaciones":null,"origen":null},"geometry":{"type":"MultiLineString","coordinates":[[[6405570.376833566464484,6597455.469731471501291],[6405562.159290449693799,6597463.369333219714463]]]}},
{"type":"Feature","properties":{"fid":6,"calle":"Urquiza","entre_calle_1":"Av 9 de Julio","entre_calle_2":"Pablo Stampa","lado":"par","tipo":"prohibido","motivo":"subida_privada","arranque_m":null,"largo_m":null,"capacidad":null,"horario":null,"tarifa":null,"senializacion":null,"observaciones":null,"origen":null},"geometry":{"type":"MultiLineString","coordinates":[[[6405562.159290445037186,6597463.369333185255527],[6405559.957027860917151,6597465.503772768191993]]]}},
{"type":"Feature","properties":{"fid":15,"calle":"Urquiza","entre_calle_1":"Pablo Stampa","entre_calle_2":"Rivadavia","lado":"par","tipo":"prohibido","motivo":"subida_privada","arranque_m":null,"largo_m":null,"capacidad":null,"horario":null,"tarifa":null,"senializacion":null,"observaciones":null,"origen":null},"geometry":{"type":"MultiLineString","coordinates":[[[6405623.1642433879897,6597401.387199795804918],[6405625.392621380276978,6597399.331456635147333]]]}},
{"type":"Feature","properties":{"fid":16,"calle":"Urquiza","entre_calle_1":"Pablo Stampa","entre_calle_2":"Rivadavia","lado":"par","tipo":"autos","motivo":null,"arranque_m":null,"largo_m":null,"capacidad":null,"horario":null,"tarifa":null,"senializacion":null,"observaciones":null,"origen":null},"geometry":{"type":"MultiLineString","coordinates":[[[6405625.392621375620365,6597399.33145660161972],[6405649.678294946439564,6597375.150749128311872],[6405650.989259549416602,6597373.96405444201082]]]}},
{"type":"Feature","properties":{"fid":24,"calle":"Urquiza","entre_calle_1":"Rivadavia","entre_calle_2":"3 de Febrero","lado":"par","tipo":"prohibido","motivo":"subida_privada","arranque_m":null,"largo_m":null,"capacidad":null,"horario":null,"tarifa":null,"senializacion":null,"observaciones":null,"origen":null},"geometry":{"type":"MultiLineString","coordinates":[[[6405703.851364377886057,6597323.776799694634974],[6405706.393505848012865,6597321.324069445952773]]]}},
{"type":"Feature","properties":{"fid":25,"calle":"Urquiza","entre_calle_1":"Rivadavia","entre_calle_2":"3 de Febrero","lado":"par","tipo":"autos","motivo":null,"arranque_m":null,"largo_m":null,"capacidad":null,"horario":null,"tarifa":null,"senializacion":null,"observaciones":null,"origen":null},"geometry":{"type":"MultiLineString","coordinates":[[[6405706.393505843356252,6597321.32406941242516],[6405717.291929584927857,6597310.626316484995186]]]}},
{"type":"Feature","properties":{"fid":18,"calle":"Urquiza","entre_calle_1":"Rivadavia","entre_calle_2":"3 de Febrero","lado":"impar","tipo":"prohibido","motivo":"subida_privada","arranque_m":null,"largo_m":null,"capacidad":null,"horario":null,"tarifa":null,"senializacion":null,"observaciones":null,"origen":null},"geometry":{"type":"MultiLineString","coordinates":[[[6405683.369436029344797,6597331.744496613740921],[6405686.073311885818839,6597329.019868906587362]]]}},
{"type":"Feature","properties":{"fid":19,"calle":"Urquiza","entre_calle_1":"Rivadavia","entre_calle_2":"3 de Febrero","lado":"impar","tipo":"autos","motivo":null,"arranque_m":null,"largo_m":null,"capacidad":null,"horario":null,"tarifa":null,"senializacion":null,"observaciones":null,"origen":null},"geometry":{"type":"MultiLineString","coordinates":[[[6405686.073311880230904,6597329.019868873991072],[6405690.654925845563412,6597324.375360489822924]]]}},
{"type":"Feature","properties":{"fid":20,"calle":"Urquiza","entre_calle_1":"Rivadavia","entre_calle_2":"3 de Febrero","lado":"impar","tipo":"prohibido","motivo":"subida_privada","arranque_m":null,"largo_m":null,"capacidad":null,"horario":null,"tarifa":null,"senializacion":null,"observaciones":null,"origen":null},"geometry":{"type":"MultiLineString","coordinates":[[[6405690.654925840906799,6597324.375360454432666],[6405693.232461930252612,6597321.570223112590611]]]}},
{"type":"Feature","properties":{"fid":21,"calle":"Urquiza","entre_calle_1":"Rivadavia","entre_calle_2":"3 de Febrero","lado":"impar","tipo":"autos","motivo":null,"arranque_m":null,"largo_m":null,"capacidad":null,"horario":null,"tarifa":null,"senializacion":null,"observaciones":null,"origen":null},"geometry":{"type":"MultiLineString","coordinates":[[[6405693.232461930252612,6597321.570223112590611],[6405717.080043545924127,6597298.432751315645874]]]}},
{"type":"Feature","properties":{"fid":31,"calle":"Urquiza","entre_calle_1":"3 de Febrero","entre_calle_2":"Entre Ríos","lado":"par","tipo":"prohibido","motivo":"subida_privada","arranque_m":null,"largo_m":null,"capacidad":null,"horario":null,"tarifa":null,"senializacion":null,"observaciones":null,"origen":null},"geometry":{"type":"MultiLineString","coordinates":[[[6405778.704648084007204,6597250.380506196059287],[6405781.010257325135171,6597248.097553838975728]]]}},
{"type":"Feature","properties":{"fid":32,"calle":"Urquiza","entre_calle_1":"3 de Febrero","entre_calle_2":"Entre Ríos","lado":"par","tipo":"autos","motivo":null,"arranque_m":null,"largo_m":null,"capacidad":null,"horario":null,"tarifa":null,"senializacion":null,"observaciones":null,"origen":null},"geometry":{"type":"MultiLineString","coordinates":[[[6405781.010257325135171,6597248.097553838975728],[6405805.406087966635823,6597223.775123035535216]]]}},
{"type":"Feature","properties":{"fid":33,"calle":"Urquiza","entre_calle_1":"Entre Ríos","entre_calle_2":"Alberdi","lado":"impar","tipo":"motos","motivo":null,"arranque_m":null,"largo_m":null,"capacidad":null,"horario":null,"tarifa":null,"senializacion":null,"observaciones":null,"origen":null},"geometry":{"type":"MultiLineString","coordinates":[[[6405820.125086392275989,6597195.890288887545466],[6405828.784530765376985,6597187.495012312196195]]]}},
{"type":"Feature","properties":{"fid":34,"calle":"Urquiza","entre_calle_1":"Entre Ríos","entre_calle_2":"Alberdi","lado":"impar","tipo":"autos","motivo":null,"arranque_m":null,"largo_m":null,"capacidad":null,"horario":null,"tarifa":null,"senializacion":null,"observaciones":null,"origen":null},"geometry":{"type":"MultiLineString","coordinates":[[[6405828.784530760720372,6597187.495012279599905],[6405867.968832044862211,6597149.005242119543254]]]}},
{"type":"Feature","properties":{"fid":40,"calle":"Urquiza","entre_calle_1":"Entre Ríos","entre_calle_2":"Alberdi","lado":"par","tipo":"motos","motivo":null,"arranque_m":null,"largo_m":null,"capacidad":null,"horario":null,"tarifa":null,"senializacion":null,"observaciones":null,"origen":null},"geometry":{"type":"MultiLineString","coordinates":[[[6405873.772386575117707,6597155.074602742679417],[6405865.133586429059505,6597163.064148931764066]]]}},
{"type":"Feature","properties":{"fid":39,"calle":"Urquiza","entre_calle_1":"Entre Ríos","entre_calle_2":"Alberdi","lado":"par","tipo":"autos","motivo":null,"arranque_m":null,"largo_m":null,"capacidad":null,"horario":null,"tarifa":null,"senializacion":null,"observaciones":null,"origen":null},"geometry":{"type":"MultiLineString","coordinates":[[[6405865.13358642347157,6597163.064148899167776],[6405858.399975163862109,6597169.098972203209996]]]}},
{"type":"Feature","properties":{"fid":38,"calle":"Urquiza","entre_calle_1":"Entre Ríos","entre_calle_2":"Alberdi","lado":"par","tipo":"prohibido","motivo":"subida_privada","arranque_m":null,"largo_m":null,"capacidad":null,"horario":null,"tarifa":null,"senializacion":null,"observaciones":null,"origen":null},"geometry":{"type":"MultiLineString","coordinates":[[[6405858.399975157342851,6597169.098972170613706],[6405855.825915724039078,6597171.348471287637949]]]}},
{"type":"Feature","properties":{"fid":37,"calle":"Urquiza","entre_calle_1":"Entre Ríos","entre_calle_2":"Alberdi","lado":"par","tipo":"autos","motivo":null,"arranque_m":null,"largo_m":null,"capacidad":null,"horario":null,"tarifa":null,"senializacion":null,"observaciones":null,"origen":null},"geometry":{"type":"MultiLineString","coordinates":[[[6405855.825915719382465,6597171.348471254110336],[6405844.276629431173205,6597182.210754030384123]]]}},
{"type":"Feature","properties":{"fid":36,"calle":"Urquiza","entre_calle_1":"Entre Ríos","entre_calle_2":"Alberdi","lado":"par","tipo":"prohibido","motivo":"subida_privada","arranque_m":null,"largo_m":null,"capacidad":null,"horario":null,"tarifa":null,"senializacion":null,"observaciones":"Banco Macro","origen":null},"geometry":{"type":"MultiLineString","coordinates":[[[6405844.276629426516593,6597182.210753998719156],[6405836.126452318392694,6597190.638862231746316]]]}},
{"type":"Feature","properties":{"fid":35,"calle":"Urquiza","entre_calle_1":"Entre Ríos","entre_calle_2":"Alberdi","lado":"par","tipo":"autos","motivo":null,"arranque_m":null,"largo_m":null,"capacidad":null,"horario":null,"tarifa":null,"senializacion":null,"observaciones":null,"origen":null},"geometry":{"type":"MultiLineString","coordinates":[[[6405836.126452313736081,6597190.638862197287381],[6405824.335346787236631,6597201.446231952868402]]]}},
{"type":"Feature","properties":{"fid":41,"calle":"Urquiza","entre_calle_1":"Alberdi","entre_calle_2":"Sáenz Peña","lado":"impar","tipo":"motos","motivo":null,"arranque_m":null,"largo_m":null,"capacidad":null,"horario":null,"tarifa":null,"senializacion":null,"observaciones":null,"origen":null},"geometry":{"type":"MultiLineString","coordinates":[[[6405886.984773028641939,6597130.930078254081309],[6405895.568397714756429,6597122.361480799503624]]]}},
{"type":"Feature","properties":{"fid":45,"calle":"Urquiza","entre_calle_1":"Alberdi","entre_calle_2":"Sáenz Peña","lado":"par","tipo":"autos","motivo":null,"arranque_m":null,"largo_m":null,"capacidad":null,"horario":null,"tarifa":null,"senializacion":null,"observaciones":null,"origen":null},"geometry":{"type":"MultiLineString","coordinates":[[[6405892.737435782328248,6597136.734910388477147],[6405943.883788087405264,6597084.581434975378215]]]}},
{"type":"Feature","properties":{"fid":42,"calle":"Urquiza","entre_calle_1":"Alberdi","entre_calle_2":"Sáenz Peña","lado":"impar","tipo":"autos","motivo":null,"arranque_m":null,"largo_m":null,"capacidad":null,"horario":null,"tarifa":null,"senializacion":null,"observaciones":null,"origen":null},"geometry":{"type":"MultiLineString","coordinates":[[[6405895.568397710099816,6597122.361480767838657],[6405917.539142314344645,6597100.20649051386863]]]}},
{"type":"Feature","properties":{"fid":43,"calle":"Urquiza","entre_calle_1":"Alberdi","entre_calle_2":"Sáenz Peña","lado":"impar","tipo":"prohibido","motivo":"subida_privada","arranque_m":null,"largo_m":null,"capacidad":null,"horario":null,"tarifa":null,"senializacion":null,"observaciones":null,"origen":null},"geometry":{"type":"MultiLineString","coordinates":[[[6405917.539142308756709,6597100.206490480341017],[6405921.124808660708368,6597096.421154567040503]]]}},
{"type":"Feature","properties":{"fid":44,"calle":"Urquiza","entre_calle_1":"Alberdi","entre_calle_2":"Sáenz Peña","lado":"impar","tipo":"autos","motivo":null,"arranque_m":null,"largo_m":null,"capacidad":null,"horario":null,"tarifa":null,"senializacion":null,"observaciones":null,"origen":null},"geometry":{"type":"MultiLineString","coordinates":[[[6405921.124808656051755,6597096.42115453351289],[6405938.824455332942307,6597078.656762304715812]]]}},
{"type":"Feature","properties":{"fid":46,"calle":"Urquiza","entre_calle_1":"Sáenz Peña","entre_calle_2":"Av H Yrigoyen","lado":"impar","tipo":"motos","motivo":null,"arranque_m":null,"largo_m":null,"capacidad":null,"horario":null,"tarifa":null,"senializacion":null,"observaciones":null,"origen":null},"geometry":{"type":"MultiLineString","coordinates":[[[6405959.23823994025588,6597058.316595749929547],[6405967.768798857927322,6597050.01795747410506]]]}},
{"type":"Feature","properties":{"fid":47,"calle":"Urquiza","entre_calle_1":"Sáenz Peña","entre_calle_2":"Av H Yrigoyen","lado":"impar","tipo":"autos","motivo":null,"arranque_m":null,"largo_m":null,"capacidad":null,"horario":null,"tarifa":null,"senializacion":null,"observaciones":null,"origen":null},"geometry":{"type":"MultiLineString","coordinates":[[[6405967.768798854202032,6597050.017957440577447],[6406014.327226725406945,6597004.68174908682704]]]}},
{"type":"Feature","properties":{"fid":48,"calle":"Urquiza","entre_calle_1":"Sáenz Peña","entre_calle_2":"Av H Yrigoyen","lado":"par","tipo":"autos","motivo":null,"arranque_m":null,"largo_m":null,"capacidad":null,"horario":null,"tarifa":null,"senializacion":null,"observaciones":null,"origen":null},"geometry":{"type":"MultiLineString","coordinates":[[[6405964.567742224782705,6597063.088779170997441],[6405988.090338378213346,6597039.899226107634604]]]}},
{"type":"Feature","properties":{"fid":49,"calle":"Urquiza","entre_calle_1":"Sáenz Peña","entre_calle_2":"Av H Yrigoyen","lado":"par","tipo":"prohibido","motivo":"subida_privada","arranque_m":null,"largo_m":null,"capacidad":null,"horario":null,"tarifa":null,"senializacion":null,"observaciones":null,"origen":null},"geometry":{"type":"MultiLineString","coordinates":[[[6405988.090338372625411,6597039.899226076900959],[6406001.551267080008984,6597026.352767351083457]]]}},
{"type":"Feature","properties":{"fid":50,"calle":"Urquiza","entre_calle_1":"Sáenz Peña","entre_calle_2":"Av H Yrigoyen","lado":"par","tipo":"autos","motivo":null,"arranque_m":null,"largo_m":null,"capacidad":null,"horario":null,"tarifa":null,"senializacion":null,"observaciones":null,"origen":null},"geometry":{"type":"MultiLineString","coordinates":[[[6406001.551267075352371,6597026.352767321281135],[6406007.973125662654638,6597020.001571998931468]]]}},
{"type":"Feature","properties":{"fid":51,"calle":"Urquiza","entre_calle_1":"Sáenz Peña","entre_calle_2":"Av H Yrigoyen","lado":"par","tipo":"prohibido","motivo":"estacion_servicio_ypf","arranque_m":null,"largo_m":null,"capacidad":null,"horario":null,"tarifa":null,"senializacion":null,"observaciones":null,"origen":null},"geometry":{"type":"MultiLineString","coordinates":[[[6406007.973125657998025,6597020.001571965403855],[6406019.531757754273713,6597009.205307566560805]]]}},
{"type":"Feature","properties":{"fid":52,"calle":"Urquiza","entre_calle_1":"Av H Yrigoyen","entre_calle_2":"Sarmiento","lado":"impar","tipo":"motos","motivo":null,"arranque_m":null,"largo_m":null,"capacidad":null,"horario":null,"tarifa":null,"senializacion":null,"observaciones":null,"origen":null},"geometry":{"type":"MultiLineString","coordinates":[[[6406037.080578540451825,6596981.605913017876446],[6406045.904855919070542,6596973.22687128931284]]]}},
{"type":"Feature","properties":{"fid":53,"calle":"Urquiza","entre_calle_1":"Av H Yrigoyen","entre_calle_2":"Sarmiento","lado":"impar","tipo":"autos","motivo":null,"arranque_m":null,"largo_m":null,"capacidad":null,"horario":null,"tarifa":null,"senializacion":null,"observaciones":null,"origen":null},"geometry":{"type":"MultiLineString","coordinates":[[[6406045.904855915345252,6596973.226871256716549],[6406057.729528370313346,6596963.325178668834269],[6406072.59398971311748,6596957.008466766215861],[6406076.340821270830929,6596956.141108773648739]]]}},
{"type":"Feature","properties":{"fid":54,"calle":"Sarmiento","entre_calle_1":"Av H Yrigoyen","entre_calle_2":"Urquiza","lado":"par","tipo":"autos","motivo":null,"arranque_m":null,"largo_m":null,"capacidad":null,"horario":null,"tarifa":null,"senializacion":null,"observaciones":null,"origen":null},"geometry":{"type":"MultiLineString","coordinates":[[[6406077.032969072461128,6596972.023525306023657],[6406078.916429391130805,6596979.895272318273783]]]}},
{"type":"Feature","properties":{"fid":55,"calle":"Sarmiento","entre_calle_1":"Av H Yrigoyen","entre_calle_2":"Urquiza","lado":"par","tipo":"prohibido","motivo":"subida_privada","arranque_m":null,"largo_m":null,"capacidad":null,"horario":null,"tarifa":null,"senializacion":null,"observaciones":null,"origen":null},"geometry":{"type":"MultiLineString","coordinates":[[[6406078.916429386474192,6596979.895272285677493],[6406079.612438305281103,6596982.893072449602187]]]}},
{"type":"Feature","properties":{"fid":56,"calle":"Sarmiento","entre_calle_1":"Av H Yrigoyen","entre_calle_2":"Urquiza","lado":"par","tipo":"autos","motivo":null,"arranque_m":null,"largo_m":null,"capacidad":null,"horario":null,"tarifa":null,"senializacion":null,"observaciones":null,"origen":null},"geometry":{"type":"MultiLineString","coordinates":[[[6406079.61243830062449,6596982.893072418868542],[6406084.922286632470787,6597007.105100892484188]]]}},
{"type":"Feature","properties":{"fid":57,"calle":"Sarmiento","entre_calle_1":"Av H Yrigoyen","entre_calle_2":"Urquiza","lado":"par","tipo":"prohibido","motivo":"subida_privada","arranque_m":null,"largo_m":null,"capacidad":null,"horario":null,"tarifa":null,"senializacion":null,"observaciones":null,"origen":null},"geometry":{"type":"MultiLineString","coordinates":[[[6406084.922286626882851,6597007.105100859887898],[6406085.620838777162135,6597010.209098289720714]]]}},
{"type":"Feature","properties":{"fid":58,"calle":"Sarmiento","entre_calle_1":"Av H Yrigoyen","entre_calle_2":"Urquiza","lado":"par","tipo":"autos","motivo":null,"arranque_m":null,"largo_m":null,"capacidad":null,"horario":null,"tarifa":null,"senializacion":null,"observaciones":null,"origen":null},"geometry":{"type":"MultiLineString","coordinates":[[[6406085.620838770642877,6597010.209098258055747],[6406091.422406628727913,6597032.467571116983891]]]}},
{"type":"Feature","properties":{"fid":59,"calle":"Sarmiento","entre_calle_1":"Bolivar","entre_calle_2":"San Martín","lado":"par","tipo":"autos","motivo":null,"arranque_m":null,"largo_m":null,"capacidad":null,"horario":null,"tarifa":null,"senializacion":null,"observaciones":null,"origen":null},"geometry":{"type":"MultiLineString","coordinates":[[[6406105.365883735008538,6597098.884352129884064],[6406115.479346692562103,6597151.021623780019581]]]}},
{"type":"Feature","properties":{"fid":60,"calle":"Sarmiento","entre_calle_1":"Bolivar","entre_calle_2":"San Martín","lado":"par","tipo":"prohibido","motivo":"subida_privada","arranque_m":null,"largo_m":null,"capacidad":null,"horario":null,"tarifa":null,"senializacion":null,"observaciones":null,"origen":null},"geometry":{"type":"MultiLineString","coordinates":[[[6406115.479346692562103,6597151.021623780019581],[6406116.338210081681609,6597155.253964337520301]]]}},
{"type":"Feature","properties":{"fid":61,"calle":"Sarmiento","entre_calle_1":"Bolivar","entre_calle_2":"San Martín","lado":"par","tipo":"autos","motivo":null,"arranque_m":null,"largo_m":null,"capacidad":null,"horario":null,"tarifa":null,"senializacion":null,"observaciones":null,"origen":null},"geometry":{"type":"MultiLineString","coordinates":[[[6406116.338210081681609,6597155.253964337520301],[6406132.401952696964145,6597229.717996304854751]]]}},
{"type":"Feature","properties":{"fid":62,"calle":"Sarmiento","entre_calle_1":"Bolivar","entre_calle_2":"San Martín","lado":"par","tipo":"prohibido","motivo":"subida_privada","arranque_m":null,"largo_m":null,"capacidad":null,"horario":null,"tarifa":null,"senializacion":null,"observaciones":null,"origen":null},"geometry":{"type":"MultiLineString","coordinates":[[[6406132.401952692307532,6597229.717996271327138],[6406133.066357087343931,6597232.865040596574545]]]}},
{"type":"Feature","properties":{"fid":63,"calle":"Sarmiento","entre_calle_1":"Bolivar","entre_calle_2":"San Martín","lado":"par","tipo":"autos","motivo":null,"arranque_m":null,"largo_m":null,"capacidad":null,"horario":null,"tarifa":null,"senializacion":null,"observaciones":null,"origen":null},"geometry":{"type":"MultiLineString","coordinates":[[[6406133.066357082687318,6597232.86504056211561],[6406134.452557349577546,6597238.574463919736445]]]}},
{"type":"Feature","properties":{"fid":64,"calle":"Sarmiento","entre_calle_1":"Bolivar","entre_calle_2":"San Martín","lado":"par","tipo":"motos","motivo":null,"arranque_m":null,"largo_m":null,"capacidad":null,"horario":null,"tarifa":null,"senializacion":null,"observaciones":null,"origen":null},"geometry":{"type":"MultiLineString","coordinates":[[[6406134.452557343989611,6597238.574463887140155],[6406136.780401560477912,6597250.590952701866627]]]}},
{"type":"Feature","properties":{"fid":65,"calle":"Sarmiento","entre_calle_1":"Av Belgrano","entre_calle_2":"Bolivar","lado":"par","tipo":"autos","motivo":null,"arranque_m":null,"largo_m":null,"capacidad":null,"horario":null,"tarifa":null,"senializacion":null,"observaciones":null,"origen":null},"geometry":{"type":"MultiLineString","coordinates":[[[6406140.710211951285601,6597274.625381193123758],[6406152.638076761737466,6597339.35300306789577]]]}},
{"type":"Feature","properties":{"fid":66,"calle":"Sarmiento","entre_calle_1":"Jaime Tabeni","entre_calle_2":"Av Belgrano","lado":"par","tipo":"prohibido","motivo":"parada_taxi","arranque_m":null,"largo_m":null,"capacidad":null,"horario":null,"tarifa":null,"senializacion":null,"observaciones":null,"origen":null},"geometry":{"type":"MultiLineString","coordinates":[[[6406164.988468765281141,6597389.990759392268956],[6406169.03285454865545,6597406.731926076114178]]]}},
{"type":"Feature","properties":{"fid":72,"calle":"Sarmiento","entre_calle_1":"Jaime Tabeni","entre_calle_2":"Av Belgrano","lado":"par","tipo":"prohibido","motivo":"subida_privada","arranque_m":null,"largo_m":null,"capacidad":null,"horario":null,"tarifa":null,"senializacion":null,"observaciones":null,"origen":null},"geometry":{"type":"MultiLineString","coordinates":[[[6406182.084271025843918,6597468.574673130176961],[6406183.308655017055571,6597474.506223239004612]]]}},
{"type":"Feature","properties":{"fid":71,"calle":"Sarmiento","entre_calle_1":"Jaime Tabeni","entre_calle_2":"Av Belgrano","lado":"par","tipo":"autos","motivo":null,"arranque_m":null,"largo_m":null,"capacidad":null,"horario":null,"tarifa":null,"senializacion":null,"observaciones":null,"origen":null},"geometry":{"type":"MultiLineString","coordinates":[[[6406174.70027544721961,6597433.658292081207037],[6406182.084271031431854,6597468.574673164635897]]]}},
{"type":"Feature","properties":{"fid":67,"calle":"Sarmiento","entre_calle_1":"Jaime Tabeni","entre_calle_2":"Av Belgrano","lado":"par","tipo":"autos","motivo":null,"arranque_m":null,"largo_m":null,"capacidad":null,"horario":null,"tarifa":null,"senializacion":null,"observaciones":null,"origen":null},"geometry":{"type":"MultiLineString","coordinates":[[[6406169.03285454865545,6597406.731926076114178],[6406171.762969496659935,6597419.62207795586437]]]}},
{"type":"Feature","properties":{"fid":68,"calle":"Sarmiento","entre_calle_1":"Jaime Tabeni","entre_calle_2":"Av Belgrano","lado":"par","tipo":"prohibido","motivo":"subida_privada","arranque_m":null,"largo_m":null,"capacidad":null,"horario":null,"tarifa":null,"senializacion":null,"observaciones":null,"origen":null},"geometry":{"type":"MultiLineString","coordinates":[[[6406171.762969496659935,6597419.62207795586437],[6406172.419573596678674,6597422.704540515318513]]]}},
{"type":"Feature","properties":{"fid":69,"calle":"Sarmiento","entre_calle_1":"Jaime Tabeni","entre_calle_2":"Av Belgrano","lado":"par","tipo":"autos","motivo":null,"arranque_m":null,"largo_m":null,"capacidad":null,"horario":null,"tarifa":null,"senializacion":null,"observaciones":null,"origen":null},"geometry":{"type":"MultiLineString","coordinates":[[[6406172.419573596678674,6597422.704540515318513],[6406174.018229086883366,6597430.562890320084989]]]}},
{"type":"Feature","properties":{"fid":70,"calle":"Sarmiento","entre_calle_1":"Jaime Tabeni","entre_calle_2":"Av Belgrano","lado":"par","tipo":"prohibido","motivo":"subida_privada","arranque_m":null,"largo_m":null,"capacidad":null,"horario":null,"tarifa":null,"senializacion":null,"observaciones":null,"origen":null},"geometry":{"type":"MultiLineString","coordinates":[[[6406174.018229086883366,6597430.562890320084989],[6406174.70027544721961,6597433.658292081207037]]]}},
{"type":"Feature","properties":{"fid":73,"calle":"Sarmiento","entre_calle_1":"Jaime Tabeni","entre_calle_2":"Av Belgrano","lado":"par","tipo":"autos","motivo":null,"arranque_m":null,"largo_m":null,"capacidad":null,"horario":null,"tarifa":null,"senializacion":null,"observaciones":null,"origen":null},"geometry":{"type":"MultiLineString","coordinates":[[[6406183.308655022643507,6597474.506223272532225],[6406189.686757722869515,6597504.245547006838024]]]}},
{"type":"Feature","properties":{"fid":74,"calle":"Sarmiento","entre_calle_1":"Entre Ríos","entre_calle_2":"Jaime Tabeni","lado":"par","tipo":"autos","motivo":null,"arranque_m":null,"largo_m":null,"capacidad":null,"horario":null,"tarifa":null,"senializacion":null,"observaciones":null,"origen":null},"geometry":{"type":"MultiLineString","coordinates":[[[6406195.97371329087764,6597542.534561139531434],[6406196.559174729511142,6597545.718145244754851],[6406197.682756287977099,6597554.57682023756206],[6406197.890457318164408,6597562.969793315045536],[6406197.455696739256382,6597578.349795586429536]]]}},
{"type":"Feature","properties":{"fid":75,"calle":"Sarmiento","entre_calle_1":"Entre Ríos","entre_calle_2":"Jaime Tabeni","lado":"par","tipo":"prohibido","motivo":"subida_privada","arranque_m":null,"largo_m":null,"capacidad":null,"horario":null,"tarifa":null,"senializacion":null,"observaciones":null,"origen":null},"geometry":{"type":"MultiLineString","coordinates":[[[6406197.455696733668447,6597578.349795553833246],[6406197.296431147493422,6597581.33480279147625]]]}},
{"type":"Feature","properties":{"fid":76,"calle":"Sarmiento","entre_calle_1":"Entre Ríos","entre_calle_2":"Jaime Tabeni","lado":"par","tipo":"autos","motivo":null,"arranque_m":null,"largo_m":null,"capacidad":null,"horario":null,"tarifa":null,"senializacion":null,"observaciones":null,"origen":null},"geometry":{"type":"MultiLineString","coordinates":[[[6406197.296431141905487,6597581.334802761673927],[6406197.20307491812855,6597587.234810716472566]]]}}
]
}
