{
"type": "FeatureCollection",
"name": "urquiza_sarmiento_entrecalles",
"crs": { "type": "name", "properties": { "name": "urn:ogc:def:crs:OGC:1.3:CRS84" } },
"features": [
{"type":"Feature","properties":{"fid":1,"calle":"Sarmiento","entre_calle_1":"San Martín","entre_calle_2":"Urquiza","longitud_m":98.7,"original_fid":728,"tipo_obra":null},"geometry":{"type":"MultiLineString","coordinates":[[[-57.9809946,-30.7620376],[-57.9807104,-30.7610612]]]}},
{"type":"Feature","properties":{"fid":2,"calle":"Sarmiento","entre_calle_1":"San Martín","entre_calle_2":"Sargento Cabral","longitud_m":81.5,"original_fid":2200,"tipo_obra":null},"geometry":{"type":"MultiLineString","coordinates":[[[-57.9805418,-30.7602329],[-57.9805585,-30.7603226],[-57.9806785,-30.7609016],[-57.9807104,-30.7610612]]]}},
{"type":"Feature","properties":{"fid":3,"calle":"Sarmiento","entre_calle_1":"Sargento Cabral","entre_calle_2":"Bolivar","longitud_m":85.9,"original_fid":2199,"tipo_obra":null},"geometry":{"type":"MultiLineString","coordinates":[[[-57.9803059,-30.7593785],[-57.9805305,-30.7601756],[-57.9805418,-30.7602329]]]}},
{"type":"Feature","properties":{"fid":4,"calle":"Sarmiento","entre_calle_1":"Avenida Belgrano","entre_calle_2":"Bolivar","longitud_m":79.2,"original_fid":2198,"tipo_obra":null},"geometry":{"type":"MultiLineString","coordinates":[[[-57.9801006,-30.7585863],[-57.9801309,-30.7586787],[-57.9803059,-30.7593785]]]}},
{"type":"Feature","properties":{"fid":5,"calle":"Sarmiento","entre_calle_1":"Avenida Belgrano","entre_calle_2":null,"longitud_m":15.4,"original_fid":2201,"tipo_obra":null},"geometry":{"type":"MultiLineString","coordinates":[[[-57.9800487,-30.7584368],[-57.9801006,-30.7585863]]]}},
{"type":"Feature","properties":{"fid":6,"calle":"Sarmiento","entre_calle_1":"Avenida Belgrano","entre_calle_2":"Jaime Tabeni","longitud_m":52.0,"original_fid":535,"tipo_obra":null},"geometry":{"type":"MultiLineString","coordinates":[[[-57.9799162,-30.7579159],[-57.9800212,-30.7583285],[-57.9800487,-30.7584368]]]}},
{"type":"Feature","properties":{"fid":7,"calle":"Sarmiento","entre_calle_1":"Jaime Tabeni","entre_calle_2":null,"longitud_m":90.0,"original_fid":534,"tipo_obra":null},"geometry":{"type":"MultiLineString","coordinates":[[[-57.979687,-30.7570146],[-57.9799162,-30.7579159]]]}},
{"type":"Feature","properties":{"fid":8,"calle":"Sarmiento","entre_calle_1":"Salvarredy","entre_calle_2":"Jaime Tabeni","longitud_m":49.1,"original_fid":533,"tipo_obra":null},"geometry":{"type":"MultiLineString","coordinates":[[[-57.9796326,-30.7565072],[-57.9796355,-30.7566811],[-57.979649,-30.7568189],[-57.979687,-30.7570146]]]}},
{"type":"Feature","properties":{"fid":9,"calle":"Sarmiento","entre_calle_1":"Salvarredy","entre_calle_2":"Entre Ríos","longitud_m":27.8,"original_fid":532,"tipo_obra":null},"geometry":{"type":"MultiLineString","coordinates":[[[-57.9796473,-30.7562168],[-57.9796326,-30.7565072]]]}},
{"type":"Feature","properties":{"fid":17,"calle":"Urquiza","entre_calle_1":"Avenida 9 de Julio","entre_calle_2":"Pablo Stampa","longitud_m":106.9,"original_fid":581,"tipo_obra":null},"geometry":{"type":"MultiLineString","coordinates":[[[-57.9867721,-30.7571391],[-57.9860039,-30.7578098]]]}},
{"type":"Feature","properties":{"fid":18,"calle":"Urquiza","entre_calle_1":"Rivadavia","entre_calle_2":"Pablo Stampa","longitud_m":92.9,"original_fid":582,"tipo_obra":null},"geometry":{"type":"MultiLineString","coordinates":[[[-57.9860039,-30.7578098],[-57.9853371,-30.7583927]]]}},
{"type":"Feature","properties":{"fid":19,"calle":"Urquiza","entre_calle_1":"3 de Febrero","entre_calle_2":"Rivadavia","longitud_m":108.7,"original_fid":583,"tipo_obra":null},"geometry":{"type":"MultiLineString","coordinates":[[[-57.9853371,-30.7583927],[-57.9845567,-30.7590748]]]}},
{"type":"Feature","properties":{"fid":20,"calle":"Urquiza","entre_calle_1":"3 de Febrero","entre_calle_2":"Entre Ríos","longitud_m":111.5,"original_fid":584,"tipo_obra":null},"geometry":{"type":"MultiLineString","coordinates":[[[-57.9845567,-30.7590748],[-57.9837552,-30.7597729]]]}},
{"type":"Feature","properties":{"fid":21,"calle":"Urquiza","entre_calle_1":"Juan Bautista Alberdi","entre_calle_2":"Entre Ríos","longitud_m":102.2,"original_fid":585,"tipo_obra":null},"geometry":{"type":"MultiLineString","coordinates":[[[-57.9837552,-30.7597729],[-57.9830223,-30.7604163]]]}},
{"type":"Feature","properties":{"fid":22,"calle":"Urquiza","entre_calle_1":"Roque Sáenz Peña","entre_calle_2":"Juan Bautista Alberdi","longitud_m":104.4,"original_fid":586,"tipo_obra":null},"geometry":{"type":"MultiLineString","coordinates":[[[-57.9830223,-30.7604163],[-57.9822726,-30.7610716]]]}},
{"type":"Feature","properties":{"fid":23,"calle":"Urquiza","entre_calle_1":"Avenida Hipólito Yrigoyen","entre_calle_2":"Roque Sáenz Peña","longitud_m":107.1,"original_fid":587,"tipo_obra":null},"geometry":{"type":"MultiLineString","coordinates":[[[-57.9822726,-30.7610716],[-57.981691,-30.7615834],[-57.9815559,-30.7617022],[-57.9815051,-30.7617469]]]}},
{"type":"Feature","properties":{"fid":24,"calle":"Urquiza","entre_calle_1":"Sarmiento","entre_calle_2":"Avenida Hipólito Yrigoyen","longitud_m":66.7,"original_fid":588,"tipo_obra":null},"geometry":{"type":"MultiLineString","coordinates":[[[-57.9815051,-30.7617469],[-57.9814305,-30.7618112],[-57.9811696,-30.7620358],[-57.9810701,-30.7620646],[-57.9809946,-30.7620376]]]}}
]
}
