{
"type": "FeatureCollection",
"name": "urquiza_sarmiento_centro",
"crs": { "type": "name", "properties": { "name": "urn:ogc:def:crs:OGC:1.3:CRS84" } },
"features": [
{ "type": "Feature", "properties": { "id": "way/201783969", "name": "Sarmiento" }, "geometry": { "type": "LineString", "coordinates": [ [ -57.9796727, -30.7553512 ], [ -57.9796839, -30.7559098 ], [ -57.9796853, -30.7559814 ], [ -57.9796473, -30.7562168 ], [ -57.9796326, -30.7565072 ], [ -57.9796355, -30.7566811 ], [ -57.979649, -30.7568189 ], [ -57.979687, -30.7570146 ], [ -57.9799122, -30.7578986 ], [ -57.9800212, -30.7583285 ], [ -57.9800487, -30.7584368 ] ] } },
{ "type": "Feature", "properties": { "id": "way/201783981", "name": "Urquiza" }, "geometry": { "type": "LineString", "coordinates": [ [ -57.9867721, -30.7571391 ], [ -57.9860039, -30.7578098 ], [ -57.9867721, -30.7571391 ], [ -57.9860039, -30.7578098 ], [ -57.9853371, -30.7583927 ], [ -57.9845567, -30.7590748 ], [ -57.9837552, -30.7597729 ], [ -57.9830223, -30.7604163 ], [ -57.9822726, -30.7610716 ], [ -57.981691, -30.7615834 ], [ -57.9815559, -30.7617022 ], [ -57.9815051, -30.7617469 ], [ -57.9814305, -30.7618112 ], [ -57.9811696, -30.7620358 ], [ -57.9810701, -30.7620646 ], [ -57.9809946, -30.7620376 ] ] } },
{ "type": "Feature", "properties": { "id": "way/254256432", "name": "Sarmiento" }, "geometry": { "type": "LineString", "coordinates": [ [ -57.9809946, -30.7620376 ], [ -57.9807104, -30.7610612 ] ] } },
{ "type": "Feature", "properties": { "id": "way/544430199", "name": "Sarmiento" }, "geometry": { "type": "LineString", "coordinates": [ [ -57.9796678, -30.7522214 ], [ -57.979682387612101, -30.751039131363196 ], [ -57.979682387612101, -30.751039131363196 ], [ -57.9796678, -30.7522214 ], [ -57.9796538, -30.7531824 ], [ -57.9796507, -30.7537008 ], [ -57.9796481, -30.7541288 ], [ -57.9796634, -30.7548914 ], [ -57.9796641, -30.7549283 ], [ -57.9796727, -30.7553512 ] ] } },
{ "type": "Feature", "properties": { "id": "way/983661091", "name": "Sarmiento" }, "geometry": { "type": "LineString", "coordinates": [ [ -57.9801006, -30.7585863 ], [ -57.9801309, -30.7586787 ], [ -57.9803059, -30.7593785 ], [ -57.9805305, -30.7601756 ], [ -57.9805418, -30.7602329 ], [ -57.9805585, -30.7603226 ], [ -57.9806785, -30.7609016 ], [ -57.9807104, -30.7610612 ] ] } },
{ "type": "Feature", "properties": { "id": "way/983661092", "name": "Sarmiento" }, "geometry": { "type": "LineString", "coordinates": [ [ -57.9800487, -30.7584368 ], [ -57.9801006, -30.7585863 ] ] } }
]
}
