{
"type": "FeatureCollection",
"name": "bo_citricola",
"crs": { "type": "name", "properties": { "name": "urn:ogc:def:crs:OGC:1.3:CRS84" } },
"features": [
{ "type": "Feature", "properties": { "fid": 48, "Nombre": "Citricola" }, "geometry": { "type": "MultiPolygon", "coordinates": [ [ [ [ -58.000134621912444, -30.780664518870964 ], [ -57.995856888171176, -30.782789828854252 ], [ -57.99624122423689, -30.783249719742461 ], [ -57.994539102895452, -30.784849129753603 ], [ -57.996904646087636, -30.7869006046745 ], [ -58.000540525658579, -30.783827452238196 ], [ -58.000134621912444, -30.780664518870964 ] ] ] ] } }
]
}
